GLOBALSTAR M001         
1 25162U 98008A   25196.87606247 -.00000092  00000+0  36583-4 0  9994
2 25162  52.0017 249.7247 0001162 306.0083 225.3392 12.38214600247262
GLOBALSTAR M004         
1 25163U 98008B   25196.55910307 -.00000058  00000+0  25126-3 0  9997
2 25163  52.0024 327.5968 0002857   8.4770  71.7559 12.63398241265376
GLOBALSTAR M002         
1 25164U 98008C   25196.90844864 -.00000067  00000+0  17742-3 0  9996
2 25164  51.9984 168.1896 0001215 214.0885 145.9857 11.61510999187403
GLOBALSTAR M003         
1 25165U 98008D   25196.97353219 -.00000154  00000+0 -69243-3 0  9994
2 25165  51.9987  88.7991 0008421 355.0767  27.4491 12.12071411236716
GLOBALSTAR M014         
1 25306U 98023A   25196.94571956 -.00000083  00000+0 -95613-4 0  9997
2 25306  51.9843  90.7163 0001673  46.9167  36.8055 11.65481329194522
GLOBALSTAR M006         
1 25307U 98023B   25196.86296642 -.00000087  00000+0 -24095-3 0  9994
2 25307  51.9923 144.4695 0002722 154.4840 242.9482 11.58176643220153
GLOBALSTAR M015         
1 25308U 98023C   25196.87483234 -.00000069  00000+0  92962-4 0  9999
2 25308  51.9800 244.2286 0012609 127.7935  42.4208 11.48859917197373
GLOBALSTAR M008         
1 25309U 98023D   25196.94449021 -.00000083  00000+0  10593-3 0  9999
2 25309  51.9965 114.6794 0002078 241.2941 198.2496 12.36070507241409
